STARLINK-3192           
1 49767U 21115AV  26068.51413364  .00000176  00000+0  29173-4 0  9991
2 49767  53.2178 139.9103 0001357  89.0818 271.0330 15.08834739235652
RAISE-4                 
1 67073U 25297B   26068.97636248  .00005682  00000+0  37087-3 0  9993
2 67073  97.4953 219.2703 0012713  22.7159 337.4629 15.08174958 12933
